[{"OBJECT_NAME":"STARLINK-3724","OBJECT_ID":"2022-041AW","EPOCH":"2026-03-09T09:36:04.916160","MEAN_MOTION":15.08841424,"ECCENTRICITY":0.0001474,"INCLINATION":53.2173,"RA_OF_ASC_NODE":100.5251,"ARG_OF_PERICENTER":86.0377,"MEAN_ANOMALY":274.0784,"EPHEMERIS_TYPE":0,"CLASSIFICATION_TYPE":"U","NORAD_CAT_ID":52305,"ELEMENT_SET_NO":999,"REV_AT_EPOCH":21446,"BSTAR":0.00040370289,"MEAN_MOTION_DOT":6.143e-5,"MEAN_MOTION_DDOT":0},{"OBJECT_NAME":"FENGYUN 1C DEB","OBJECT_ID":"1999-025AYA","EPOCH":"2026-03-09T23:00:33.421824","MEAN_MOTION":14.97109165,"ECCENTRICITY":0.00762057,"INCLINATION":99.4912,"RA_OF_ASC_NODE":70.9716,"ARG_OF_PERICENTER":234.2891,"MEAN_ANOMALY":125.1218,"EPHEMERIS_TYPE":0,"CLASSIFICATION_TYPE":"U","NORAD_CAT_ID":30888,"ELEMENT_SET_NO":999,"REV_AT_EPOCH":1220,"BSTAR":0.0012389306,"MEAN_MOTION_DOT":0.0001511,"MEAN_MOTION_DDOT":0}]
